STARLINK-34782          
1 65358U 25190H   26062.50926712  .00020195  00000+0  69211-3 0  9990
2 65358  53.1600 196.5541 0001030  43.2052 316.9029 15.30200442 28815
STARLINK-34760          
1 65359U 25190J   26062.52087367  .00021561  00000+0  73800-3 0  9994
2 65359  53.1587 196.6216 0001103  50.8846 309.2252 15.30198818 28340
STARLINK-34826          
1 65360U 25190K   26062.61890419  .00032951  00000+0  11198-2 0  9992
2 65360  53.1600 196.5250 0001524  58.3811 301.7339 15.30197618 28358
STARLINK-34800          
1 65361U 25190L   26062.63886136  .00040043  00000+0  13574-2 0  9997
2 65361  53.1604 195.9371 0001257  85.9894 274.1250 15.30186407 28360
STARLINK-34817          
1 65362U 25190M   26062.63366755  .00026643  00000+0  90810-3 0  9997
2 65362  53.1605 196.6102 0000743 100.7086 259.3999 15.30212666 28823
STARLINK-34797          
1 65363U 25190N   26062.61256795  .00032965  00000+0  11195-2 0  9990
2 65363  53.1598 196.4845 0001314 142.6050 217.5043 15.30220156 28827
STARLINK-34729          
1 65364U 25190P   26062.59991183  .00020632  00000+0  70681-3 0  9999
2 65364  53.1581 196.4039 0001189  67.1647 292.9479 15.30198116 29245
STARLINK-34710          
1 65365U 25190Q   26062.63578701  .00021925  00000+0  75027-3 0  9997
2 65365  53.1608 196.6306 0001063  59.3126 300.7979 15.30197017 28354
STARLINK-34943          
1 65366U 25190R   26062.62628732  .00027831  00000+0  94786-3 0  9992
2 65366  53.1612 196.5666 0000683 106.0606 254.0470 15.30214155 28358
STARLINK-34946          
1 65367U 25190S   26062.61362602  .00022392  00000+0  76562-3 0  9992
2 65367  53.1599 196.4845 0001003 103.8587 256.2525 15.30210718 28829
STARLINK-34259          
1 65368U 25190T   26062.61573657  .00024306  00000+0  82984-3 0  9999
2 65368  53.1596 196.5009 0000846  95.8320 264.2778 15.30209902 28821
STARLINK-34913          
1 65369U 25190U   26062.60940523  .00029768  00000+0  10128-2 0  9996
2 65369  53.1594 196.4599 0000785  93.5754 266.5337 15.30211566 28826
STARLINK-34870          
1 65370U 25190V   26062.60096372  .00023740  00000+0  81105-3 0  9990
2 65370  53.1576 196.4134 0000914  76.5634 283.5468 15.30201732 28351
STARLINK-34869          
1 65371U 25190W   26062.60307102  .00034288  00000+0  11640-2 0  9992
2 65371  53.1575 196.4224 0001918  98.3202 261.8017 15.30211890 28826
STARLINK-34903          
1 65372U 25190X   26062.52509259  .00025312  00000+0  86381-3 0  9994
2 65372  53.1586 196.6431 0000917  57.6938 302.4151 15.30200740 28815
STARLINK-34891          
1 65373U 25190Y   26062.63260803 -.00006359  00000+0 -20277-3 0  9990
2 65373  53.1597 196.5990 0001209  82.0310 278.0828 15.30198325 28306
