[{"OBJECT_NAME":"STARLINK-34782","OBJECT_ID":"2025-190H","EPOCH":"2026-03-03T12:13:20.679168","MEAN_MOTION":15.30200442,"ECCENTRICITY":0.00010303,"INCLINATION":53.16,"RA_OF_ASC_NODE":196.5541,"ARG_OF_PERICENTER":43.2052,"MEAN_ANOMALY":316.9029,"EPHEMERIS_TYPE":0,"CLASSIFICATION_TYPE":"U","NORAD_CAT_ID":65358,"ELEMENT_SET_NO":999,"REV_AT_EPOCH":2881,"BSTAR":0.00069211102,"MEAN_MOTION_DOT":0.00020195,"MEAN_MOTION_DDOT":0},{"OBJECT_NAME":"STARLINK-34760","OBJECT_ID":"2025-190J","EPOCH":"2026-03-03T12:30:03.485088","MEAN_MOTION":15.30198818,"ECCENTRICITY":0.00011035,"INCLINATION":53.1587,"RA_OF_ASC_NODE":196.6216,"ARG_OF_PERICENTER":50.8846,"MEAN_ANOMALY":309.2252,"EPHEMERIS_TYPE":0,"CLASSIFICATION_TYPE":"U","NORAD_CAT_ID":65359,"ELEMENT_SET_NO":999,"REV_AT_EPOCH":2834,"BSTAR":0.0007379991,"MEAN_MOTION_DOT":0.00021561,"MEAN_MOTION_DDOT":0},{"OBJECT_NAME":"STARLINK-34826","OBJECT_ID":"2025-190K","EPOCH":"2026-03-03T14:51:13.322016","MEAN_MOTION":15.30197618,"ECCENTRICITY":0.00015245,"INCLINATION":53.16,"RA_OF_ASC_NODE":196.525,"ARG_OF_PERICENTER":58.3811,"MEAN_ANOMALY":301.7339,"EPHEMERIS_TYPE":0,"CLASSIFICATION_TYPE":"U","NORAD_CAT_ID":65360,"ELEMENT_SET_NO":999,"REV_AT_EPOCH":2835,"BSTAR":0.0011198051,"MEAN_MOTION_DOT":0.00032951,"MEAN_MOTION_DDOT":0},{"OBJECT_NAME":"STARLINK-34800","OBJECT_ID":"2025-190L","EPOCH":"2026-03-03T15:19:57.621504","MEAN_MOTION":15.30186407,"ECCENTRICITY":0.00012575,"INCLINATION":53.1604,"RA_OF_ASC_NODE":195.9371,"ARG_OF_PERICENTER":85.9894,"MEAN_ANOMALY":274.125,"EPHEMERIS_TYPE":0,"CLASSIFICATION_TYPE":"U","NORAD_CAT_ID":65361,"ELEMENT_SET_NO":999,"REV_AT_EPOCH":2836,"BSTAR":0.0013574111,"MEAN_MOTION_DOT":0.00040043,"MEAN_MOTION_DDOT":0},{"OBJECT_NAME":"STARLINK-34817","OBJECT_ID":"2025-190M","EPOCH":"2026-03-03T15:12:28.876320","MEAN_MOTION":15.30212666,"ECCENTRICITY":7.434e-5,"INCLINATION":53.1605,"RA_OF_ASC_NODE":196.6102,"ARG_OF_PERICENTER":100.7086,"MEAN_ANOMALY":259.3999,"EPHEMERIS_TYPE":0,"CLASSIFICATION_TYPE":"U","NORAD_CAT_ID":65362,"ELEMENT_SET_NO":999,"REV_AT_EPOCH":2882,"BSTAR":0.000908103,"MEAN_MOTION_DOT":0.00026643,"MEAN_MOTION_DDOT":0},{"OBJECT_NAME":"STARLINK-34797","OBJECT_ID":"2025-190N","EPOCH":"2026-03-03T14:42:05.870880","MEAN_MOTION":15.30220156,"ECCENTRICITY":0.00013142,"INCLINATION":53.1598,"RA_OF_ASC_NODE":196.4845,"ARG_OF_PERICENTER":142.605,"MEAN_ANOMALY":217.5043,"EPHEMERIS_TYPE":0,"CLASSIFICATION_TYPE":"U","NORAD_CAT_ID":65363,"ELEMENT_SET_NO":999,"REV_AT_EPOCH":2882,"BSTAR":0.0011194821,"MEAN_MOTION_DOT":0.00032965,"MEAN_MOTION_DDOT":0},{"OBJECT_NAME":"STARLINK-34729","OBJECT_ID":"2025-190P","EPOCH":"2026-03-03T14:23:52.382112","MEAN_MOTION":15.30198116,"ECCENTRICITY":0.00011899,"INCLINATION":53.1581,"RA_OF_ASC_NODE":196.4039,"ARG_OF_PERICENTER":67.1647,"MEAN_ANOMALY":292.9479,"EPHEMERIS_TYPE":0,"CLASSIFICATION_TYPE":"U","NORAD_CAT_ID":65364,"ELEMENT_SET_NO":999,"REV_AT_EPOCH":2924,"BSTAR":0.00070681379,"MEAN_MOTION_DOT":0.00020632,"MEAN_MOTION_DDOT":0},{"OBJECT_NAME":"STARLINK-34710","OBJECT_ID":"2025-190Q","EPOCH":"2026-03-03T15:15:31.997664","MEAN_MOTION":15.30197017,"ECCENTRICITY":0.0001063,"INCLINATION":53.1608,"RA_OF_ASC_NODE":196.6306,"ARG_OF_PERICENTER":59.3126,"MEAN_ANOMALY":300.7979,"EPHEMERIS_TYPE":0,"CLASSIFICATION_TYPE":"U","NORAD_CAT_ID":65365,"ELEMENT_SET_NO":999,"REV_AT_EPOCH":2835,"BSTAR":0.00075026861,"MEAN_MOTION_DOT":0.00021925,"MEAN_MOTION_DDOT":0},{"OBJECT_NAME":"STARLINK-34943","OBJECT_ID":"2025-190R","EPOCH":"2026-03-03T15:01:51.224448","MEAN_MOTION":15.30214155,"ECCENTRICITY":6.836e-5,"INCLINATION":53.1612,"RA_OF_ASC_NODE":196.5666,"ARG_OF_PERICENTER":106.0606,"MEAN_ANOMALY":254.047,"EPHEMERIS_TYPE":0,"CLASSIFICATION_TYPE":"U","NORAD_CAT_ID":65366,"ELEMENT_SET_NO":999,"REV_AT_EPOCH":2835,"BSTAR":0.00094785892,"MEAN_MOTION_DOT":0.00027831,"MEAN_MOTION_DDOT":0},{"OBJECT_NAME":"STARLINK-34946","OBJECT_ID":"2025-190S","EPOCH":"2026-03-03T14:43:37.288128","MEAN_MOTION":15.30210718,"ECCENTRICITY":0.00010038,"INCLINATION":53.1599,"RA_OF_ASC_NODE":196.4845,"ARG_OF_PERICENTER":103.8587,"MEAN_ANOMALY":256.2525,"EPHEMERIS_TYPE":0,"CLASSIFICATION_TYPE":"U","NORAD_CAT_ID":65367,"ELEMENT_SET_NO":999,"REV_AT_EPOCH":2882,"BSTAR":0.00076561777,"MEAN_MOTION_DOT":0.00022392,"MEAN_MOTION_DDOT":0},{"OBJECT_NAME":"STARLINK-34259","OBJECT_ID":"2025-190T","EPOCH":"2026-03-03T14:46:39.639648","MEAN_MOTION":15.30209902,"ECCENTRICITY":8.465e-5,"INCLINATION":53.1596,"RA_OF_ASC_NODE":196.5009,"ARG_OF_PERICENTER":95.832,"MEAN_ANOMALY":264.2778,"EPHEMERIS_TYPE":0,"CLASSIFICATION_TYPE":"U","NORAD_CAT_ID":65368,"ELEMENT_SET_NO":999,"REV_AT_EPOCH":2882,"BSTAR":0.00082984093,"MEAN_MOTION_DOT":0.00024306,"MEAN_MOTION_DDOT":0},{"OBJECT_NAME":"STARLINK-34913","OBJECT_ID":"2025-190U","EPOCH":"2026-03-03T14:37:32.611872","MEAN_MOTION":15.30211566,"ECCENTRICITY":7.852e-5,"INCLINATION":53.1594,"RA_OF_ASC_NODE":196.4599,"ARG_OF_PERICENTER":93.5754,"MEAN_ANOMALY":266.5337,"EPHEMERIS_TYPE":0,"CLASSIFICATION_TYPE":"U","NORAD_CAT_ID":65369,"ELEMENT_SET_NO":999,"REV_AT_EPOCH":2882,"BSTAR":0.0010127908,"MEAN_MOTION_DOT":0.00029768,"MEAN_MOTION_DDOT":0},{"OBJECT_NAME":"STARLINK-34870","OBJECT_ID":"2025-190V","EPOCH":"2026-03-03T14:25:23.265408","MEAN_MOTION":15.30201732,"ECCENTRICITY":9.144e-5,"INCLINATION":53.1576,"RA_OF_ASC_NODE":196.4134,"ARG_OF_PERICENTER":76.5634,"MEAN_ANOMALY":283.5468,"EPHEMERIS_TYPE":0,"CLASSIFICATION_TYPE":"U","NORAD_CAT_ID":65370,"ELEMENT_SET_NO":999,"REV_AT_EPOCH":2835,"BSTAR":0.00081104631,"MEAN_MOTION_DOT":0.0002374,"MEAN_MOTION_DDOT":0},{"OBJECT_NAME":"STARLINK-34869","OBJECT_ID":"2025-190W","EPOCH":"2026-03-03T14:28:25.336128","MEAN_MOTION":15.3021189,"ECCENTRICITY":0.00019181,"INCLINATION":53.1575,"RA_OF_ASC_NODE":196.4224,"ARG_OF_PERICENTER":98.3202,"MEAN_ANOMALY":261.8017,"EPHEMERIS_TYPE":0,"CLASSIFICATION_TYPE":"U","NORAD_CAT_ID":65371,"ELEMENT_SET_NO":999,"REV_AT_EPOCH":2882,"BSTAR":0.0011640211,"MEAN_MOTION_DOT":0.00034288,"MEAN_MOTION_DDOT":0},{"OBJECT_NAME":"STARLINK-34903","OBJECT_ID":"2025-190X","EPOCH":"2026-03-03T12:36:07.999776","MEAN_MOTION":15.3020074,"ECCENTRICITY":9.177e-5,"INCLINATION":53.1586,"RA_OF_ASC_NODE":196.6431,"ARG_OF_PERICENTER":57.6938,"MEAN_ANOMALY":302.4151,"EPHEMERIS_TYPE":0,"CLASSIFICATION_TYPE":"U","NORAD_CAT_ID":65372,"ELEMENT_SET_NO":999,"REV_AT_EPOCH":2881,"BSTAR":0.00086381091,"MEAN_MOTION_DOT":0.00025312,"MEAN_MOTION_DDOT":0},{"OBJECT_NAME":"STARLINK-34891","OBJECT_ID":"2025-190Y","EPOCH":"2026-03-03T15:10:57.333792","MEAN_MOTION":15.30198325,"ECCENTRICITY":0.00012095,"INCLINATION":53.1597,"RA_OF_ASC_NODE":196.599,"ARG_OF_PERICENTER":82.031,"MEAN_ANOMALY":278.0828,"EPHEMERIS_TYPE":0,"CLASSIFICATION_TYPE":"U","NORAD_CAT_ID":65373,"ELEMENT_SET_NO":999,"REV_AT_EPOCH":2830,"BSTAR":-0.0002027737,"MEAN_MOTION_DOT":-6.359e-5,"MEAN_MOTION_DDOT":0}]
